      2.10          N: GNSS NAV DATA                        RINEX VERSION / TYPE
fic2rin                                 11/29/2023 00:17:50 PGM / RUN BY / DATE
                                                            END OF HEADER
8  23 11 28  1 59 44.0 -.154196750373D-03 -.181898940355D-11  .000000000000D+00
     .800000000000D+01  .141843750000D+03  .482698677766D-08  .222921003516D+01
     .733695924282D-05  .896539387759D-02  .229291617870D-05  .515379018021D+04
     .179984000000D+06 -.234693288803D-06 -.208265589383D+01  .540167093277D-07
     .955884717007D+00  .333156250000D+03  .280343067220D+00 -.838927801853D-08
     .314655963827D-09  .100000000000D+01  .229000000000D+04  .000000000000D+00
     .240000000000D+01  .000000000000D+00  .512227416039D-08  .800000000000D+01
     .172800000000D+06  .400000000000D+01
30 23 11 28  5 59 44.0 -.463509932160D-03  .409272615798D-11  .000000000000D+00
     .500000000000D+01 -.156875000000D+02  .534129391490D-08  .142372825504D+01
    -.711530447006D-06  .660782470368D-02  .650808215141D-05  .515372058678D+04
     .194384000000D+06 -.875443220139D-07  .214162438220D+01  .577419996262D-07
     .935139036226D+00  .243343750000D+03 -.255320378954D+01 -.830534595100D-08
    -.571095216980D-09  .100000000000D+01  .229000000000D+04  .000000000000D+00
     .240000000000D+01  .000000000000D+00  .372529029846D-08  .500000000000D+01
     .187200000000D+06  .400000000000D+01
2  23 11 28  6  0  0.0 -.523053575307D-03  .511590769747D-11  .000000000000D+00
     .900000000000D+02 -.821250000000D+02  .467733768703D-08 -.143331398625D+01
    -.382587313652D-05  .162730587181D-01  .174157321453D-05  .515372195435D+04
     .194400000000D+06 -.305473804474D-06 -.108712004771D+01  .244006514549D-06
     .967460259655D+00  .352500000000D+03 -.130555973202D+01 -.841356474446D-08
    -.109290266664D-09  .100000000000D+01  .229000000000D+04  .000000000000D+00
     .240000000000D+01  .000000000000D+00 -.176951289177D-07  .900000000000D+02
     .187200000000D+06  .400000000000D+01
1  23 11 28  6  0  0.0  .163385178894D-03  .227373675443D-12  .000000000000D+00
     .600000000000D+02 -.103843750000D+03  .397087968879D-08  .222511408544D+01
    -.553205609322D-05  .129753556103D-01  .198557972908D-05  .515402492523D+04
     .194400000000D+06 -.633299350739D-07 -.984415784480D+00 -.301748514175D-06
     .990402394898D+00  .357625000000D+03  .100040980932D+01 -.785175562857D-08
    -.170364239212D-09  .100000000000D+01  .229000000000D+04  .000000000000D+00
     .340000000000D+01  .630000000000D+02  .512227416039D-08  .600000000000D+02
     .187200000000D+06  .400000000000D+01
3  23 11 28  6  0  0.0  .158660113811D-04  .263753463514D-10  .000000000000D+00
     .630000000000D+02 -.101781250000D+03  .378337187834D-08  .108179561839D+01
    -.535696744919D-05  .507474131882D-02  .107679516077D-04  .515356391907D+04
     .194400000000D+06 -.912696123123D-07  .443390808207D-01  .353902578354D-07
     .982120193911D+00  .182531250000D+03  .111213450297D+01 -.757745848870D-08
     .134648465792D-09  .100000000000D+01  .229000000000D+04  .000000000000D+00
     .240000000000D+01  .000000000000D+00  .186264514923D-08  .630000000000D+02
     .187200000000D+06  .400000000000D+01
8  23 11 28  6  0  0.0 -.154222827405D-03 -.181898940355D-11  .000000000000D+00
     .170000000000D+02  .118531250000D+03  .467198032102D-08 -.195157368969D+01
     .588037073612D-05  .896748085506D-02  .251084566116D-05  .515378623390D+04
     .194400000000D+06  .931322574615D-08 -.208277525186D+01 -.109896063805D-06
     .955890608178D+00  .330875000000D+03  .280498606133D+00 -.822962851135D-08
     .397873715894D-09  .100000000000D+01  .229000000000D+04  .000000000000D+00
     .240000000000D+01  .000000000000D+00  .512227416039D-08  .170000000000D+02
     .187200000000D+06  .400000000000D+01
7  23 11 28  6  0  0.0  .202376395464D-05 -.977706804406D-11  .000000000000D+00
     .370000000000D+02 -.173750000000D+02  .503556689443D-08  .151634485255D+01
    -.103749334812D-05  .176723334007D-01  .693090260029D-05  .515368923569D+04
     .194400000000D+06 -.389292836189D-06  .213828494253D+01 -.651925802231D-07
     .950003419136D+00  .246687500000D+03 -.216492930942D+01 -.823498587736D-08
    -.562880589093D-09  .100000000000D+01  .229000000000D+04  .000000000000D+00
     .240000000000D+01  .000000000000D+00 -.111758708954D-07  .370000000000D+02
     .187200000000D+06  .400000000000D+01
6  23 11 28  6  0  0.0  .493903644383D-03 -.106865627458D-10  .000000000000D+00
     .660000000000D+02 -.110093750000D+03  .411874299075D-08  .242372719797D+01
    -.554881989956D-05  .304099894129D-02  .133737921715D-05  .515378676796D+04
     .194400000000D+06  .912696123123D-07 -.992767940747D+00  .502914190292D-07
     .989538117526D+00  .368062500000D+03 -.829523099344D+00 -.811640950961D-08
    -.269654089318D-09  .100000000000D+01  .229000000000D+04  .000000000000D+00
     .240000000000D+01  .000000000000D+00  .372529029846D-08  .660000000000D+02
     .187200000000D+06  .400000000000D+01
4  23 11 28  6  0  0.0  .224907882512D-03  .102318153949D-10  .000000000000D+00
     .110000000000D+03  .162500000000D+02  .467805200250D-08 -.218120509522D+01
     .754371285439D-06  .271281856112D-02  .707618892193D-05  .515359587097D+04
     .194400000000D+06 -.298023223877D-07  .112394497856D+01 -.372529029846D-08
     .963419992984D+00  .244937500000D+03 -.305027638837D+01 -.788890003292D-08
     .501806616545D-09  .100000000000D+01  .229000000000D+04  .000000000000D+00
     .240000000000D+01  .000000000000D+00 -.465661287308D-08  .366000000000D+03
     .187200000000D+06  .400000000000D+01
12 23 11 28  6  0  0.0 -.451707746834D-03 -.409272615798D-11  .000000000000D+00
     .680000000000D+02  .979062500000D+02  .401338145916D-08  .843084307514D+00
     .500306487083D-05  .875910359900D-02  .114124268293D-04  .515376243782D+04
     .194400000000D+06 -.126659870148D-06 -.303003508078D+01 -.447034835815D-07
     .964311240714D+00  .160718750000D+03  .139717575647D+01 -.779925344164D-08
    -.321084803042D-09  .100000000000D+01  .229000000000D+04  .000000000000D+00
     .240000000000D+01  .000000000000D+00 -.125728547573D-07  .680000000000D+02
     .187200000000D+06  .400000000000D+01
10 23 11 28  6  0  0.0 -.631385482848D-04 -.159161572810D-11  .000000000000D+00
     .730000000000D+02 -.970312500000D+02  .383658838073D-08  .114831055357D+00
    -.507384538651D-05  .913708843291D-02  .100117176771D-04  .515369355011D+04
     .194400000000D+06  .111758708954D-07  .417522817787D-01  .745058059692D-07
     .981821537722D+00  .197031250000D+03 -.242160857367D+01 -.770853537715D-08
     .685742849656D-10  .100000000000D+01  .229000000000D+04  .000000000000D+00
     .240000000000D+01  .000000000000D+00  .232830643654D-08  .730000000000D+02
     .187200000000D+06  .400000000000D+01
11 23 11 28  6  0  0.0 -.478621572256D-03 -.158024704433D-10  .000000000000D+00
     .190000000000D+02 -.118156250000D+03  .459483425043D-08 -.266481528697D+01
    -.602193176746D-05  .128989410587D-02  .128149986267D-05  .515363191605D+04
     .194400000000D+06  .000000000000D+00 -.955636652914D+00 -.447034835815D-07
     .965943642241D+00  .357156250000D+03 -.255469075799D+01 -.834963351004D-08
    -.248938940735D-09  .100000000000D+01  .229000000000D+04  .000000000000D+00
     .240000000000D+01  .000000000000D+00 -.838190317154D-08  .787000000000D+03
     .187200000000D+06  .400000000000D+01
31 23 11 28  6  0  0.0 -.226129777730D-03 -.341060513165D-12  .000000000000D+00
     .330000000000D+02 -.165000000000D+02  .484484466437D-08  .668111206519D+00
    -.596046447754D-06  .106204614276D-01  .653415918350D-05  .515364396667D+04
     .194400000000D+06 -.130385160446D-06  .215903738784D+01  .175088644028D-06
     .954056389787D+00  .250062500000D+03  .630582278534D+00 -.813069581897D-08
    -.542879755978D-09  .100000000000D+01  .229000000000D+04  .000000000000D+00
     .240000000000D+01  .000000000000D+00 -.135041773319D-07  .330000000000D+02
     .187200000000D+06  .400000000000D+01
16 23 11 28  6  0  0.0 -.414219684899D-03  .693489710102D-11  .000000000000D+00
     .200000000000D+02  .921875000000D+02  .403195366134D-08 -.917842107282D+00
     .504031777382D-05  .137123842724D-01  .997446477413D-05  .515370156479D+04
     .194400000000D+06  .232830643654D-06 -.301197625971D+01  .234693288803D-06
     .963899550697D+00  .187406250000D+03  .804325423840D+00 -.779318176016D-08
    -.200008331150D-09  .100000000000D+01  .229000000000D+04  .000000000000D+00
     .240000000000D+01  .000000000000D+00 -.102445483208D-07  .200000000000D+02
     .187200000000D+06  .400000000000D+01
24 23 11 28  6  0  0.0 -.381390098482D-03 -.852651282912D-11  .000000000000D+00
     .800000000000D+02 -.178125000000D+02  .529700635586D-08  .255866912714D+01
    -.112876296043D-05  .149148600176D-01  .563263893127D-05  .515361695480D+04
     .194400000000D+06  .651925802231D-07  .204438471633D+01 -.223517417908D-06
     .933567045900D+00  .254531250000D+03  .947131725575D+00 -.808819404860D-08
    -.380015829185D-09  .100000000000D+01  .229000000000D+04  .000000000000D+00
     .240000000000D+01  .000000000000D+00  .232830643654D-08  .800000000000D+02
     .187200000000D+06  .400000000000D+01
27 23 11 28  6  0  0.0 -.759232789278D-04 -.511590769747D-11  .000000000000D+00
     .450000000000D+02  .113218750000D+03  .442018411841D-08 -.181867798939D+01
     .573694705963D-05  .118725345237D-01  .242702662945D-05  .515367292976D+04
     .194400000000D+06  .137835741043D-06 -.205785453162D+01 -.109896063805D-06
     .964827302621D+00  .332656250000D+03  .742475412567D+00 -.808426531353D-08
     .400016662300D-09  .100000000000D+01  .229000000000D+04  .000000000000D+00
     .340000000000D+01  .000000000000D+00  .186264514923D-08  .450000000000D+02
     .187200000000D+06  .400000000000D+01
